     2              NAVIGATION DATA                         RINEX VERSION / TYPE
CCRINEXN V1.6.0 UX  CDDIS               14-JUL-16 15:33     PGM / RUN BY / DATE 
IGS BROADCAST EPHEMERIS FILE                                COMMENT             
    0.7451D-08  0.2235D-07 -0.5960D-07 -0.1192D-06          ION ALPHA           
    0.9011D+05  0.1147D+06 -0.6554D+05 -0.5243D+06          ION BETA            
   -0.186264514923D-08-0.106581410364D-13   503808     1905 DELTA-UTC: A0,A1,T,W
    17                                                      LEAP SECONDS        
                                                            END OF HEADER       
32 16  7 13  0  0  0.0-0.468487851322D-04-0.104591890704D-10 0.000000000000D+00
    0.510000000000D+02 0.402187500000D+02 0.455411841571D-08-0.185890620165D+00
    0.206753611565D-05 0.572763732634D-03 0.887922942638D-05 0.515362557793D+04
    0.259200000000D+06 0.167638063431D-07-0.953903760618D+00-0.745058059692D-08
    0.959223390110D+00 0.205906250000D+03-0.228648868344D+01-0.801497712644D-08
   -0.151792037273D-09 0.100000000000D+01 0.190500000000D+04 0.000000000000D+00
    0.200000000000D+01 0.000000000000D+00 0.465661287308D-09 0.510000000000D+02
    0.259200000000D+06 0.000000000000D+00 0.000000000000D+00 0.000000000000D+00
 1 16  7 13  1 59 44.0 0.267201103270D-04 0.125055521494D-11 0.000000000000D+00
    0.340000000000D+02-0.178437500000D+02 0.470698177897D-08-0.156074928777D+01
   -0.105984508991D-05 0.568783062044D-02 0.607408583164D-05 0.515363815880D+04
    0.266384000000D+06 0.782310962677D-07-0.303625612675D+01-0.279396772385D-07
    0.965092741792D+00 0.262218750000D+03 0.493985857774D+00-0.810426614664D-08
    0.329656588663D-09 0.000000000000D+00 0.190500000000D+04 0.000000000000D+00
    0.200000000000D+01 0.000000000000D+00 0.512227416039D-08 0.340000000000D+02
    0.259200000000D+06 0.400000000000D+01 0.000000000000D+00 0.000000000000D+00
 3 16  7 13  1 59 44.0-0.725295394659D-04-0.306954461848D-11 0.000000000000D+00
    0.310000000000D+02-0.253125000000D+02 0.475519807309D-08-0.885147614454D+00
   -0.134296715260D-05 0.193341867998D-03 0.831857323647D-05 0.515366467667D+04
    0.266384000000D+06-0.447034835815D-07-0.199489304639D+01-0.689178705216D-07
    0.959080163116D+00 0.216593750000D+03-0.132390167162D+01-0.808497962900D-08
   -0.186436337250D-09 0.000000000000D+00 0.190500000000D+04 0.000000000000D+00
    0.200000000000D+01 0.000000000000D+00 0.186264514923D-08 0.310000000000D+02
    0.259200000000D+06 0.400000000000D+01 0.000000000000D+00 0.000000000000D+00
 5 16  7 13  1 59 44.0-0.105878338218D-03 0.284217094304D-11 0.000000000000D+00
    0.470000000000D+02-0.210312500000D+02 0.516664378288D-08 0.132215985114D+01
   -0.851228833199D-06 0.458781467751D-02 0.838190317154D-05 0.515355232048D+04
    0.266384000000D+06 0.856816768646D-07-0.200742344444D+01 0.132247805595D-06
    0.946142068809D+00 0.210562500000D+03 0.457079256603D+00-0.833034699239D-08
   -0.258939357292D-09 0.100000000000D+01 0.190500000000D+04 0.000000000000D+00
    0.200000000000D+01 0.000000000000D+00-0.107102096081D-07 0.470000000000D+02
    0.259200000000D+06 0.400000000000D+01 0.000000000000D+00 0.000000000000D+00
 6 16  7 13  1 59 44.0 0.217791646719D-03 0.534328137292D-11 0.000000000000D+00
    0.120000000000D+02-0.194062500000D+02 0.474198323692D-08-0.133880350816D+01
   -0.961124897003D-06 0.336725497618D-03 0.649318099022D-05 0.515372410774D+04
    0.266384000000D+06-0.298023223877D-07-0.304467511789D+01 0.111758708954D-07
    0.964915989104D+00 0.260218750000D+03-0.131440237400D+01-0.809533720329D-08
    0.226795161215D-09 0.000000000000D+00 0.190500000000D+04 0.000000000000D+00
    0.200000000000D+01 0.000000000000D+00 0.419095158577D-08 0.120000000000D+02
    0.265290000000D+06 0.400000000000D+01 0.000000000000D+00 0.000000000000D+00
29 16  7 13  1 59 44.0 0.655555631965D-03-0.568434188608D-12 0.000000000000D+00
    0.100000000000D+01-0.192500000000D+02 0.398623747136D-08 0.268264770538D+01
   -0.957399606705D-06 0.743879936635D-03 0.871531665325D-05 0.515378628349D+04
    0.266384000000D+06 0.111758708954D-07 0.224931575804D+01 0.372529029846D-07
    0.977892454289D+00 0.216750000000D+03-0.132316507628D-01-0.781318259327D-08
    0.358943522867D-09 0.100000000000D+01 0.190500000000D+04 0.000000000000D+00
    0.200000000000D+01 0.000000000000D+00-0.102445483208D-07 0.100000000000D+01
    0.264720000000D+06 0.400000000000D+01 0.000000000000D+00 0.000000000000D+00
 2 16  7 13  2  0  0.0 0.577059108764D-03-0.386535248253D-11 0.000000000000D+00
    0.130000000000D+02-0.128750000000D+02 0.526879089486D-08-0.116679451034D+01
   -0.283122062683D-06 0.158069655299D-01 0.606477260590D-05 0.515359169197D+04
    0.266400000000D+06 0.216066837311D-06-0.308276653495D+01 0.309199094772D-06
    0.943885374306D+00 0.251812500000D+03-0.210237628117D+01-0.841856495274D-08
    0.271082720255D-09 0.100000000000D+01 0.190500000000D+04 0.000000000000D+00
    0.200000000000D+01 0.000000000000D+00-0.200234353542D-07 0.130000000000D+02
    0.259200000000D+06 0.400000000000D+01 0.000000000000D+00 0.000000000000D+00
 4 16  7 13  2  0  0.0-0.258987303823D-03-0.341060513165D-12 0.000000000000D+00
    0.650000000000D+02-0.425000000000D+02 0.517807283038D-08 0.163966581107D+01
   -0.225380063057D-05 0.849304697476D-02 0.637955963612D-05 0.515366131973D+04
    0.266400000000D+06-0.100582838059D-06 0.116975649228D+01-0.670552253723D-07
    0.983114161897D+00 0.269687500000D+03 0.902966591566D+00-0.797426073140D-08
   -0.192508018732D-09 0.100000000000D+01 0.190500000000D+04 0.000000000000D+00
    0.280000000000D+01 0.630000000000D+02-0.195577740669D-07 0.650000000000D+02
    0.259200000000D+06 0.400000000000D+01 0.000000000000D+00 0.000000000000D+00
 6 16  7 13  2  0  0.0 0.217792578042D-03 0.534328137292D-11 0.000000000000D+00
    0.186000000000D+03-0.194062500000D+02 0.474198323692D-08-0.133649255988D+01
   -0.961124897003D-06 0.336723052897D-03 0.649318099022D-05 0.515372410774D+04
    0.266400000000D+06-0.298023223877D-07-0.304467524663D+01 0.111758708954D-07
    0.964915990567D+00 0.260218750000D+03-0.131437958612D+01-0.809533720329D-08
    0.226438003480D-09 0.000000000000D+00 0.190500000000D+04 0.000000000000D+00
    0.200000000000D+01 0.000000000000D+00 0.419095158577D-08 0.186000000000D+03
    0.262050000000D+06 0.400000000000D+01 0.000000000000D+00 0.000000000000D+00
 7 16  7 13  2  0  0.0 0.442381948233D-03-0.261479726760D-11 0.000000000000D+00
    0.780000000000D+02 0.389687500000D+02 0.436232456547D-08-0.226962462318D+01
    0.194460153580D-05 0.974089535885D-02 0.513531267643D-05 0.515363937759D+04
    0.266400000000D+06 0.279396772385D-07 0.122380460197D+00-0.111758708954D-06
    0.966171962792D+00 0.283593750000D+03-0.266186734027D+01-0.800604776974D-08
    0.535736601294D-11 0.000000000000D+00 0.190500000000D+04 0.000000000000D+00
    0.200000000000D+01 0.000000000000D+00-0.111758708954D-07 0.780000000000D+02
    0.259200000000D+06 0.400000000000D+01 0.000000000000D+00 0.000000000000D+00
 8 16  7 13  2  0  0.0-0.425265170634D-04-0.136424205266D-11 0.000000000000D+00
    0.700000000000D+02-0.233750000000D+02 0.427624955153D-08 0.138737796504D+01
   -0.111572444439D-05 0.168924243189D-02 0.806897878647D-05 0.515372092629D+04
    0.266400000000D+06 0.726431608200D-07 0.218630832987D+01-0.670552253723D-07
    0.963723892271D+00 0.225781250000D+03-0.104671216571D+01-0.795175979414D-08
    0.282511767749D-09 0.000000000000D+00 0.190500000000D+04 0.000000000000D+00
    0.200000000000D+01 0.000000000000D+00 0.465661287308D-08 0.700000000000D+02
    0.259200000000D+06 0.400000000000D+01 0.000000000000D+00 0.000000000000D+00
 9 16  7 13  2  0  0.0 0.166358426213D-03 0.727595761418D-11 0.000000000000D+00
    0.490000000000D+02 0.445000000000D+02 0.458626246481D-08 0.159409558814D+00
    0.221841037273D-05 0.500404392369D-03 0.883825123310D-05 0.515354792213D+04
    0.266400000000D+06-0.353902578354D-07-0.955590320835D+00-0.372529029846D-08
    0.954638116235D+00 0.206281250000D+03 0.238639712590D+01-0.802176271004D-08
   -0.137505727665D-09 0.000000000000D+00 0.190500000000D+04 0.000000000000D+00
    0.200000000000D+01 0.000000000000D+00 0.139698386192D-08 0.490000000000D+02
    0.262260000000D+06 0.400000000000D+01 0.000000000000D+00 0.000000000000D+00
10 16  7 13  2  0  0.0-0.643441453576D-04-0.727595761418D-11 0.000000000000D+00
    0.420000000000D+02-0.269062500000D+02 0.479662842778D-08 0.240780956378D+01
   -0.133179128170D-05 0.160643947311D-02 0.831484794617D-05 0.515368016052D+04
    0.266400000000D+06-0.521540641785D-07-0.199886316906D+01-0.335276126862D-07
    0.959312929474D+00 0.219968750000D+03-0.272877844976D+01-0.806033551015D-08
   -0.204294220429D-09 0.100000000000D+01 0.190500000000D+04 0.000000000000D+00
    0.200000000000D+01 0.000000000000D+00 0.232830643654D-08 0.420000000000D+02
    0.259200000000D+06 0.000000000000D+00 0.000000000000D+00 0.000000000000D+00
11 16  7 13  2  0  0.0-0.655677635223D-03-0.136424205266D-11 0.000000000000D+00
    0.106000000000D+03-0.162500000000D+01 0.598024910138D-08-0.215461920262D+01
    0.949949026108D-07 0.165889168857D-01 0.561028718948D-05 0.515367026520D+04
    0.266400000000D+06 0.204890966415D-06 0.286680261420D+01 0.134110450745D-06
    0.897496382452D+00 0.229281250000D+03 0.154201953736D+01-0.855714215360D-08
    0.441804117201D-09 0.000000000000D+00 0.190500000000D+04 0.000000000000D+00
    0.280000000000D+01 0.000000000000D+00-0.121071934700D-07 0.106000000000D+03
    0.259200000000D+06 0.400000000000D+01 0.000000000000D+00 0.000000000000D+00
